IDEFIX & ARIANE 42P R/B 
1 27422U 02021B   26009.27273557  .00000366  00000+0  15568-3 0  9999
2 27422  98.5815 308.6109 0012059   8.0101 352.1272 14.30975645235522
AQUA                    
1 27424U 02022A   26009.00333547  .00001046  00000+0  21942-3 0  9998
2 27424  98.4075 335.3304 0002025  85.7625 349.1392 14.61808998260011
CZ-4B R/B               
1 27432U 02024C   26009.16216510  .00000043  00000+0  44871-4 0  9999
2 27432  98.8956  62.8327 0050033 191.0188 235.0567 14.14534858220827
MIDORI II (ADEOS-II)    
1 27597U 02056A   26009.29860222  .00000389  00000+0  17092-3 0  9992
2 27597  98.7673 327.4051 0001486 126.3193 233.8125 14.29231558201814
H-2A R/B                
1 27601U 02056E   26009.33055921  .00000453  00000+0  17347-3 0  9990
2 27601  98.3104 331.9949 0069940 339.4827 148.2540 14.33707384205602
CZ-4B R/B               
1 28059U 03049C   26008.96695659  .00000444  00000+0  11323-3 0  9995
2 28059  98.6810   1.5627 0049184  54.7332 305.8451 14.54942327177911
CZ-2C R/B               
1 28222U 04012C   26009.12389157  .00041247  00000+0  54719-3 0  9992
2 28222  97.7367  69.0479 0016903 166.4768 193.6943 15.57974246194985
SL-16 R/B               
1 28353U 04021B   26009.27043665  .00000198  00000+0  12791-3 0  9998
2 28353  71.0022 357.1882 0003514 154.6119 205.5176 14.14591144114432
CZ-4B R/B               
1 28415U 04035C   26009.33491071  .00009555  00000+0  34777-3 0  9991
2 28415  97.3581  44.3153 0032927 176.3042 183.8447 15.27916161170845
CZ-2C R/B               
1 28480U 04046B   26009.30531313  .00000307  00000+0  12976-3 0  9999
2 28480  98.2000 287.9727 0138962 330.9725  28.3780 14.26963109100036
ARIANE 5 R/B            
1 28499U 04049H   26009.21051831  .00001546  00000+0  17676-3 0  9992
2 28499  98.2541 175.4812 0084305 183.0614 177.0095 14.85106626136967
CZ-2D R/B               
1 28738U 05024B   26009.28049052  .00037765  00000+0  56011-3 0  9999
2 28738  97.3628  22.4841 0003486 216.9546 143.1468 15.55135606130536
