CCSDS_OMM_VERS = 2.0
CREATION_DATE  = 
ORIGINATOR     = 

OBJECT_NAME    = IDEFIX & ARIANE 42P R/B
OBJECT_ID      = 2002-021B
CENTER_NAME    = EARTH
REF_FRAME      = TEME
TIME_SYSTEM    = UTC
MEAN_ELEMENT_THEORY = SGP/SGP4

EPOCH          = 2026-01-09T06:32:44.353248
MEAN_MOTION    = 14.30975645
ECCENTRICITY   = .00120594
INCLINATION    = 98.5815
RA_OF_ASC_NODE = 308.6109
ARG_OF_PERICENTER = 8.0101
MEAN_ANOMALY   = 352.1272

EPHEMERIS_TYPE = 0
CLASSIFICATION_TYPE = U
NORAD_CAT_ID   = 27422
ELEMENT_SET_NO = 999
REV_AT_EPOCH   = 23552
BSTAR          = .15568141E-3
MEAN_MOTION_DOT = .366E-5
MEAN_MOTION_DDOT = 0

CCSDS_OMM_VERS = 2.0
CREATION_DATE  = 
ORIGINATOR     = 

OBJECT_NAME    = AQUA
OBJECT_ID      = 2002-022A
CENTER_NAME    = EARTH
REF_FRAME      = TEME
TIME_SYSTEM    = UTC
MEAN_ELEMENT_THEORY = SGP/SGP4

EPOCH          = 2026-01-09T00:04:48.184608
MEAN_MOTION    = 14.61808998
ECCENTRICITY   = .00020258
INCLINATION    = 98.4075
RA_OF_ASC_NODE = 335.3304
ARG_OF_PERICENTER = 85.7625
MEAN_ANOMALY   = 349.1392

EPHEMERIS_TYPE = 0
CLASSIFICATION_TYPE = U
NORAD_CAT_ID   = 27424
ELEMENT_SET_NO = 999
REV_AT_EPOCH   = 26001
BSTAR          = .2194155E-3
MEAN_MOTION_DOT = .1046E-4
MEAN_MOTION_DDOT = 0

CCSDS_OMM_VERS = 2.0
CREATION_DATE  = 
ORIGINATOR     = 

OBJECT_NAME    = CZ-4B R/B
OBJECT_ID      = 2002-024C
CENTER_NAME    = EARTH
REF_FRAME      = TEME
TIME_SYSTEM    = UTC
MEAN_ELEMENT_THEORY = SGP/SGP4

EPOCH          = 2026-01-09T03:53:31.064640
MEAN_MOTION    = 14.14534858
ECCENTRICITY   = .00500333
INCLINATION    = 98.8956
RA_OF_ASC_NODE = 62.8327
ARG_OF_PERICENTER = 191.0188
MEAN_ANOMALY   = 235.0567

EPHEMERIS_TYPE = 0
CLASSIFICATION_TYPE = U
NORAD_CAT_ID   = 27432
ELEMENT_SET_NO = 999
REV_AT_EPOCH   = 22082
BSTAR          = .44870521E-4
MEAN_MOTION_DOT = .43E-6
MEAN_MOTION_DDOT = 0

CCSDS_OMM_VERS = 2.0
CREATION_DATE  = 
ORIGINATOR     = 

OBJECT_NAME    = MIDORI II (ADEOS-II)
OBJECT_ID      = 2002-056A
CENTER_NAME    = EARTH
REF_FRAME      = TEME
TIME_SYSTEM    = UTC
MEAN_ELEMENT_THEORY = SGP/SGP4

EPOCH          = 2026-01-09T07:09:59.231808
MEAN_MOTION    = 14.29231558
ECCENTRICITY   = .00014865
INCLINATION    = 98.7673
RA_OF_ASC_NODE = 327.4051
ARG_OF_PERICENTER = 126.3193
MEAN_ANOMALY   = 233.8125

EPHEMERIS_TYPE = 0
CLASSIFICATION_TYPE = U
NORAD_CAT_ID   = 27597
ELEMENT_SET_NO = 999
REV_AT_EPOCH   = 20181
BSTAR          = .17092231E-3
MEAN_MOTION_DOT = .389E-5
MEAN_MOTION_DDOT = 0

CCSDS_OMM_VERS = 2.0
CREATION_DATE  = 
ORIGINATOR     = 

OBJECT_NAME    = H-2A R/B
OBJECT_ID      = 2002-056E
CENTER_NAME    = EARTH
REF_FRAME      = TEME
TIME_SYSTEM    = UTC
MEAN_ELEMENT_THEORY = SGP/SGP4

EPOCH          = 2026-01-09T07:56:00.315744
MEAN_MOTION    = 14.33707384
ECCENTRICITY   = .006994
INCLINATION    = 98.3104
RA_OF_ASC_NODE = 331.9949
ARG_OF_PERICENTER = 339.4827
MEAN_ANOMALY   = 148.2540

EPHEMERIS_TYPE = 0
CLASSIFICATION_TYPE = U
NORAD_CAT_ID   = 27601
ELEMENT_SET_NO = 999
REV_AT_EPOCH   = 20560
BSTAR          = .17347111E-3
MEAN_MOTION_DOT = .453E-5
MEAN_MOTION_DDOT = 0

CCSDS_OMM_VERS = 2.0
CREATION_DATE  = 
ORIGINATOR     = 

OBJECT_NAME    = CZ-4B R/B
OBJECT_ID      = 2003-049C
CENTER_NAME    = EARTH
REF_FRAME      = TEME
TIME_SYSTEM    = UTC
MEAN_ELEMENT_THEORY = SGP/SGP4

EPOCH          = 2026-01-08T23:12:25.049376
MEAN_MOTION    = 14.54942327
ECCENTRICITY   = .00491844
INCLINATION    = 98.6810
RA_OF_ASC_NODE = 1.5627
ARG_OF_PERICENTER = 54.7332
MEAN_ANOMALY   = 305.8451

EPHEMERIS_TYPE = 0
CLASSIFICATION_TYPE = U
NORAD_CAT_ID   = 28059
ELEMENT_SET_NO = 999
REV_AT_EPOCH   = 17791
BSTAR          = .11323462E-3
MEAN_MOTION_DOT = .444E-5
MEAN_MOTION_DDOT = 0

CCSDS_OMM_VERS = 2.0
CREATION_DATE  = 
ORIGINATOR     = 

OBJECT_NAME    = CZ-2C R/B
OBJECT_ID      = 2004-012C
CENTER_NAME    = EARTH
REF_FRAME      = TEME
TIME_SYSTEM    = UTC
MEAN_ELEMENT_THEORY = SGP/SGP4

EPOCH          = 2026-01-09T02:58:24.231648
MEAN_MOTION    = 15.57974246
ECCENTRICITY   = .0016903
INCLINATION    = 97.7367
RA_OF_ASC_NODE = 69.0479
ARG_OF_PERICENTER = 166.4768
MEAN_ANOMALY   = 193.6943

EPHEMERIS_TYPE = 0
CLASSIFICATION_TYPE = U
NORAD_CAT_ID   = 28222
ELEMENT_SET_NO = 999
REV_AT_EPOCH   = 19498
BSTAR          = .54719435E-3
MEAN_MOTION_DOT = .41247E-3
MEAN_MOTION_DDOT = 0

CCSDS_OMM_VERS = 2.0
CREATION_DATE  = 
ORIGINATOR     = 

OBJECT_NAME    = SL-16 R/B
OBJECT_ID      = 2004-021B
CENTER_NAME    = EARTH
REF_FRAME      = TEME
TIME_SYSTEM    = UTC
MEAN_ELEMENT_THEORY = SGP/SGP4

EPOCH          = 2026-01-09T06:29:25.726560
MEAN_MOTION    = 14.14591144
ECCENTRICITY   = .00035149
INCLINATION    = 71.0022
RA_OF_ASC_NODE = 357.1882
ARG_OF_PERICENTER = 154.6119
MEAN_ANOMALY   = 205.5176

EPHEMERIS_TYPE = 0
CLASSIFICATION_TYPE = U
NORAD_CAT_ID   = 28353
ELEMENT_SET_NO = 999
REV_AT_EPOCH   = 11443
BSTAR          = .12791236E-3
MEAN_MOTION_DOT = .198E-5
MEAN_MOTION_DDOT = 0

CCSDS_OMM_VERS = 2.0
CREATION_DATE  = 
ORIGINATOR     = 

OBJECT_NAME    = CZ-4B R/B
OBJECT_ID      = 2004-035C
CENTER_NAME    = EARTH
REF_FRAME      = TEME
TIME_SYSTEM    = UTC
MEAN_ELEMENT_THEORY = SGP/SGP4

EPOCH          = 2026-01-09T08:02:16.285344
MEAN_MOTION    = 15.27916161
ECCENTRICITY   = .00329277
INCLINATION    = 97.3581
RA_OF_ASC_NODE = 44.3153
ARG_OF_PERICENTER = 176.3042
MEAN_ANOMALY   = 183.8447

EPHEMERIS_TYPE = 0
CLASSIFICATION_TYPE = U
NORAD_CAT_ID   = 28415
ELEMENT_SET_NO = 999
REV_AT_EPOCH   = 17084
BSTAR          = .34776856E-3
MEAN_MOTION_DOT = .9555E-4
MEAN_MOTION_DDOT = 0

CCSDS_OMM_VERS = 2.0
CREATION_DATE  = 
ORIGINATOR     = 

OBJECT_NAME    = CZ-2C R/B
OBJECT_ID      = 2004-046B
CENTER_NAME    = EARTH
REF_FRAME      = TEME
TIME_SYSTEM    = UTC
MEAN_ELEMENT_THEORY = SGP/SGP4

EPOCH          = 2026-01-09T07:19:39.054432
MEAN_MOTION    = 14.26963109
ECCENTRICITY   = .01389628
INCLINATION    = 98.2000
RA_OF_ASC_NODE = 287.9727
ARG_OF_PERICENTER = 330.9725
MEAN_ANOMALY   = 28.3780

EPHEMERIS_TYPE = 0
CLASSIFICATION_TYPE = U
NORAD_CAT_ID   = 28480
ELEMENT_SET_NO = 999
REV_AT_EPOCH   = 10003
BSTAR          = .12976044E-3
MEAN_MOTION_DOT = .307E-5
MEAN_MOTION_DDOT = 0

CCSDS_OMM_VERS = 2.0
CREATION_DATE  = 
ORIGINATOR     = 

OBJECT_NAME    = ARIANE 5 R/B
OBJECT_ID      = 2004-049H
CENTER_NAME    = EARTH
REF_FRAME      = TEME
TIME_SYSTEM    = UTC
MEAN_ELEMENT_THEORY = SGP/SGP4

EPOCH          = 2026-01-09T05:03:08.781984
MEAN_MOTION    = 14.85106626
ECCENTRICITY   = .00843052
INCLINATION    = 98.2541
RA_OF_ASC_NODE = 175.4812
ARG_OF_PERICENTER = 183.0614
MEAN_ANOMALY   = 177.0095

EPHEMERIS_TYPE = 0
CLASSIFICATION_TYPE = U
NORAD_CAT_ID   = 28499
ELEMENT_SET_NO = 999
REV_AT_EPOCH   = 13696
BSTAR          = .17676316E-3
MEAN_MOTION_DOT = .1546E-4
MEAN_MOTION_DDOT = 0

CCSDS_OMM_VERS = 2.0
CREATION_DATE  = 
ORIGINATOR     = 

OBJECT_NAME    = CZ-2D R/B
OBJECT_ID      = 2005-024B
CENTER_NAME    = EARTH
REF_FRAME      = TEME
TIME_SYSTEM    = UTC
MEAN_ELEMENT_THEORY = SGP/SGP4

EPOCH          = 2026-01-09T06:43:54.380928
MEAN_MOTION    = 15.55135606
ECCENTRICITY   = .00034867
INCLINATION    = 97.3628
RA_OF_ASC_NODE = 22.4841
ARG_OF_PERICENTER = 216.9546
MEAN_ANOMALY   = 143.1468

EPHEMERIS_TYPE = 0
CLASSIFICATION_TYPE = U
NORAD_CAT_ID   = 28738
ELEMENT_SET_NO = 999
REV_AT_EPOCH   = 13053
BSTAR          = .56011474E-3
MEAN_MOTION_DOT = .37765E-3
MEAN_MOTION_DDOT = 0

